NORAD_CAT_ID,OBJECT_NAME,OBJECT_TYPE,EPOCH,MEAN_MOTION,ECCENTRICITY,INCLINATION,RA_OF_ASC_NODE,ARG_OF_PERICENTER,MEAN_ANOMALY,BSTAR,MEAN_MOTION_DOT,MEAN_MOTION_DDOT,TLE_LINE0,TLE_LINE1,TLE_LINE2,SEMIMAJOR_AXIS,PERIOD,APOGEE,PERIGEE,DECAYED
55297.0,STARLINK-5284,PAYLOAD,2023-03-16 22:47:16,15.69937819,0.0003664,70.001,270.2914,275.3292,84.7486,7.9382e-05,9.349e-05,0.0,0 STARLINK-5284,1 55297U 23010AE  23075.94949599  .00009349  00000-0  79382-4 0  9997,2 55297  70.0010 270.2914 0003664 275.3292  84.7486 15.69937819  9365,6737.212,91.723,361.545,356.608,0.0
55297.0,STARLINK-5284,PAYLOAD,2023-03-17 06:26:02,15.69921039,0.0003288,70.0005,269.395,271.2435,88.8384,1.5368e-05,1.635e-05,0.0,0 STARLINK-5284,1 55297U 23010AE  23076.26808306  .00001635  00000-0  15368-4 0  9997,2 55297  70.0005 269.3950 0003288 271.2435  88.8384 15.69921039  9419,6737.26,91.724,361.34,356.91,0.0
55297.0,STARLINK-5284,PAYLOAD,2023-03-17 12:33:02,15.699235,0.000343,70.0009,268.6791,270.8919,89.1884,2.0545e-05,2.258e-05,0.0,0 STARLINK-5284,1 55297U 23010AE  23076.52294943  .00002258  00000-0  20545-4 0  9997,2 55297  70.0009 268.6791 0003430 270.8919  89.1884 15.69923500  9761,6737.253,91.724,361.429,356.807,0.0
55297.0,STARLINK-5284,PAYLOAD,2023-03-17 17:08:18,15.69930128,0.0003273,69.9997,268.1404,269.3978,90.6842,4.8389e-05,5.611e-05,0.0,0 STARLINK-5284,1 55297U 23010AE  23076.71409823  .00005611  00000-0  48389-4 0  9995,2 55297  69.9997 268.1404 0003273 269.3978  90.6842 15.69930128  9791,6737.234,91.724,361.304,356.894,0.0
55297.0,STARLINK-5284,PAYLOAD,2023-03-18 13:01:04,15.69925548,0.0003473,70.0004,265.8116,272.2335,87.8463,1.6631e-05,1.788e-05,0.0,0 STARLINK-5284,1 55297U 23010AE  23077.54241621  .00001788  00000-0  16631-4 0  9993,2 55297  70.0004 265.8116 0003473 272.2335  87.8463 15.69925548  9617,6737.247,91.724,361.452,356.772,0.0
55297.0,STARLINK-5284,PAYLOAD,2023-03-18 20:39:49,15.69940807,0.0003549,69.9994,264.9168,269.0032,91.0757,5.9686e-05,6.975e-05,0.0,0 STARLINK-5284,1 55297U 23010AE  23077.86099340  .00006975  00000-0  59686-4 0  9997,2 55297  69.9994 264.9168 0003549 269.0032  91.0757 15.69940807  9664,6737.203,91.723,361.459,356.677,0.0
55297.0,STARLINK-5284,PAYLOAD,2023-03-18 22:11:35,15.69936173,0.0003461,69.9985,264.7361,270.1077,89.9722,4.2186e-05,4.865e-05,0.0,0 STARLINK-5284,1 55297U 23010AE  23077.92471161  .00004865  00000-0  42186-4 0  9992,2 55297  69.9985 264.7361 0003461 270.1077  89.9722 15.69936173  9986,6737.217,91.723,361.413,356.75,0.0
55297.0,STARLINK-5284,PAYLOAD,2023-03-19 05:50:21,15.69914316,0.0003691,70.0004,263.8419,269.1007,90.9766,-1.1585e-05,-1.605e-05,0.0,0 STARLINK-5284,1 55297U 23010AE  23078.24330286 -.00001605  00000-0 -11585-4 0  9990,2 55297  70.0004 263.8419 0003691 269.1007  90.9766 15.69914316  9728,6737.279,91.725,361.631,356.657,0.0
55297.0,STARLINK-5284,PAYLOAD,2023-03-19 13:29:06,15.69918024,0.0004096,70.0,262.945,270.1624,89.9102,-3.5578e-06,-6.41e-06,0.0,0 STARLINK-5284,1 55297U 23010AE  23078.56188452 -.00000641  00000-0 -35578-5 0  9999,2 55297  70.0000 262.9450 0004096 270.1624  89.9102 15.69918024 10089,6737.269,91.725,361.893,356.374,0.0
55297.0,STARLINK-5284,PAYLOAD,2023-03-19 15:00:51,15.69933766,0.0003302,70.0013,262.7668,273.3507,86.7311,4.5703e-05,5.288e-05,0.0,0 STARLINK-5284,1 55297U 23010AE  23078.62559959  .00005288  00000-0  45703-4 0  9990,2 55297  70.0013 262.7668 0003302 273.3507  86.7311 15.69933766  9788,6737.223,91.724,361.313,356.864,0.0
55297.0,STARLINK-5284,PAYLOAD,2023-03-19 21:07:52,15.69927706,0.0003749,70.0014,262.0506,272.688,87.3886,3.1154e-05,3.535e-05,0.0,0 STARLINK-5284,1 55297U 23010AE  23078.88046589  .00003535  00000-0  31154-4 0  9996,2 55297  70.0014 262.0506 0003749 272.6880  87.3886 15.69927706 10136,6737.241,91.724,361.632,356.58,0.0
55297.0,STARLINK-5284,PAYLOAD,2023-03-19 22:39:37,15.69927781,0.0003785,70.0013,261.8716,273.1734,86.9028,3.3323e-05,3.797e-05,0.0,0 STARLINK-5284,1 55297U 23010AE  23078.94418283  .00003797  00000-0  33323-4 0  9997,2 55297  70.0013 261.8716 0003785 273.1734  86.9028 15.69927781 10146,6737.241,91.724,361.656,356.556,0.0
55297.0,STARLINK-5284,PAYLOAD,2023-03-20 15:28:54,15.6992419,0.0003526,70.0016,259.9012,271.4891,88.5901,1.4294e-05,1.506e-05,0.0,0 STARLINK-5284,1 55297U 23010AE  23079.64506982  .00001506  00000-0  14294-4 0  9991,2 55297  70.0016 259.9012 0003526 271.4891  88.5901 15.69924190  9949,6737.251,91.724,361.491,356.74,0.0
55297.0,STARLINK-5284,PAYLOAD,2023-03-20 18:32:24,15.69930493,0.0003574,70.0006,259.5427,270.9236,89.1551,2.7405e-05,3.085e-05,0.0,0 STARLINK-5284,1 55297U 23010AE  23079.77250042  .00003085  00000-0  27405-4 0  9990,2 55297  70.0006 259.5427 0003574 270.9236  89.1551 15.69930493 10273,6737.233,91.724,361.506,356.69,0.0
55297.0,STARLINK-5284,PAYLOAD,2023-03-21 12:53:25,15.69927385,0.0003144,70.0022,257.3936,272.813,87.2705,1.4307e-05,1.508e-05,0.0,0 STARLINK-5284,1 55297U 23010AE  23080.53710331  .00001508  00000-0  14307-4 0  9993,2 55297  70.0022 257.3936 0003144 272.8130  87.2705 15.69927385 10398,6737.242,91.724,361.225,356.989,0.0
55297.0,STARLINK-5284,PAYLOAD,2023-03-21 20:32:11,15.69934827,0.0003092,70.0018,256.4977,270.303,89.7812,3.0075e-05,3.407e-05,0.0,0 STARLINK-5284,1 55297U 23010AE  23080.85568369  .00003407  00000-0  30075-4 0  9990,2 55297  70.0018 256.4977 0003092 270.3030  89.7812 15.69934827 10139,6737.22,91.724,361.169,357.002,0.0
55297.0,STARLINK-5284,PAYLOAD,2023-03-22 19:28:27,15.69933171,0.0002813,70.0011,253.8101,254.9765,105.112,2.4287e-05,2.71e-05,0.0,0 STARLINK-5284,1 55297U 23010AE  23081.81143382  .00002710  00000-0  24287-4 0  9995,2 55297  70.0011 253.8101 0002813 254.9765 105.1120 15.69933171 10287,6737.225,91.724,360.985,357.195,0.0
55297.0,STARLINK-5284,PAYLOAD,2023-03-22 21:00:12,15.69936027,0.0003379,70.0,253.6299,268.5248,91.556,3.5618e-05,4.074e-05,0.0,0 STARLINK-5284,1 55297U 23010AE  23081.87514969  .00004074  00000-0  35618-4 0  9999,2 55297  70.0000 253.6299 0003379 268.5248  91.5560 15.69936027 10601,6737.217,91.723,361.359,356.806,0.0
55297.0,STARLINK-5284,PAYLOAD,2023-03-23 04:38:59,15.69913443,0.0003121,70.0021,252.7358,270.6458,89.438,-1.2775e-05,-1.747e-05,0.0,0 STARLINK-5284,1 55297U 23010AE  23082.19374284 -.00001747  00000-0 -12775-4 0  9994,2 55297  70.0021 252.7358 0003121 270.6458  89.4380 15.69913443 10346,6737.282,91.725,361.249,357.044,0.0
55297.0,STARLINK-5284,PAYLOAD,2023-03-23 12:17:44,15.69932704,0.0003229,70.001,251.8408,273.1494,86.9332,4.487e-05,5.188e-05,0.0,0 STARLINK-5284,1 55297U 23010AE  23082.51232086  .00005188  00000-0  44870-4 0  9995,2 55297  70.0010 251.8408 0003229 273.1494  86.9332 15.69932704 10392,6737.227,91.724,361.267,356.916,0.0
55297.0,STARLINK-5284,PAYLOAD,2023-03-23 13:49:29,15.69938955,0.0002893,70.0024,251.662,272.0309,88.0555,6.1539e-05,7.197e-05,0.0,0 STARLINK-5284,1 55297U 23010AE  23082.57603574  .00007197  00000-0  61539-4 0  9998,2 55297  70.0024 251.6620 0002893 272.0309  88.0555 15.69938955 10710,6737.209,91.723,361.023,357.125,0.0
55297.0,STARLINK-5284,PAYLOAD,2023-03-23 19:56:29,15.699399,0.0003023,70.0039,250.9461,270.2956,89.7893,6.6998e-05,7.856e-05,0.0,0 STARLINK-5284,1 55297U 23010AE  23082.83090152  .00007856  00000-0  66998-4 0  9995,2 55297  70.0039 250.9461 0003023 270.2956  89.7893 15.69939900 10753,6737.206,91.723,361.108,357.034,0.0
55297.0,STARLINK-5284,PAYLOAD,2023-03-24 12:45:45,15.69943051,0.0003132,70.0035,248.9752,257.3428,102.7417,5.0127e-05,5.823e-05,0.0,0 STARLINK-5284,1 55297U 23010AE  23083.53177817  .00005823  00000-0  50127-4 0  9996,2 55297  70.0035 248.9752 0003132 257.3428 102.7417 15.69943051 10558,6737.197,91.723,361.172,356.952,0.0
55297.0,STARLINK-5284,PAYLOAD,2023-03-24 14:17:30,15.69943452,0.0003522,70.0025,248.795,256.0825,103.9979,4.7477e-05,5.504e-05,0.0,0 STARLINK-5284,1 55297U 23010AE  23083.59549296  .00005504  00000-0  47477-4 0  9996,2 55297  70.0025 248.7950 0003522 256.0825 103.9979 15.69943452 10871,6737.196,91.723,361.434,356.688,0.0
55297.0,STARLINK-5284,PAYLOAD,2023-03-24 17:21:01,15.69915569,0.0003692,70.0006,248.4361,267.3048,92.7725,-3.931e-05,-4.935e-05,0.0,0 STARLINK-5284,1 55297U 23010AE  23083.72293335 -.00004935  00000-0 -39310-4 0  9997,2 55297  70.0006 248.4361 0003692 267.3048  92.7725 15.69915569 10583,6737.276,91.725,361.628,356.653,0.0
55297.0,STARLINK-5284,PAYLOAD,2023-03-24 20:24:33,15.69869565,0.0002896,70.0008,248.0783,266.8499,93.2365,-0.00014279,-0.00017306,0.0,0 STARLINK-5284,1 55297U 23010AE  23083.85038951 -.00017306  00000-0 -14279-3 0  9994,2 55297  70.0008 248.0783 0002896 266.8499  93.2365 15.69869565 10601,6737.407,91.727,361.223,357.321,0.0
55297.0,STARLINK-5284,PAYLOAD,2023-03-25 11:42:04,15.69911229,0.0003183,70.0035,246.289,273.9443,86.1389,-1.1435e-06,-3.5e-06,0.0,0 STARLINK-5284,1 55297U 23010AE  23084.48755613 -.00000350  00000-0 -11435-5 0  9999,2 55297  70.0035 246.2890 0003183 273.9443  86.1389 15.69911229 10701,6737.288,91.725,361.297,357.008,0.0
55297.0,STARLINK-5284,PAYLOAD,2023-03-25 20:52:34,15.69945552,0.0003546,70.0021,245.2142,258.3517,101.7281,8.7581e-05,0.00010341,0.0,0 STARLINK-5284,1 55297U 23010AE  23084.86984122  .00010341  00000-0  87581-4 0  9993,2 55297  70.0021 245.2142 0003546 258.3517 101.7281 15.69945552 10764,6737.19,91.723,361.444,356.666,0.0
55297.0,STARLINK-5284,PAYLOAD,2023-03-25 22:24:19,15.69961688,0.0003412,70.0025,245.0327,279.3149,80.7661,0.0001328,0.0001581,0.0,0 STARLINK-5284,1 55297U 23010AE  23084.93355440  .00015810  00000-0  13280-3 0  9996,2 55297  70.0025 245.0327 0003412 279.3149  80.7661 15.69961688 10774,6737.144,91.722,361.307,356.71,0.0
55297.0,STARLINK-5284,PAYLOAD,2023-03-26 12:10:05,15.6993224,0.000374,70.0016,243.4215,268.5297,91.547,8.0209e-05,9.446e-05,0.0,0 STARLINK-5284,1 55297U 23010AE  23085.50701251  .00009446  00000-0  80209-4 0  9999,2 55297  70.0016 243.4215 0003740 268.5297  91.5470 15.69932240 10860,6737.228,91.724,361.613,356.573,0.0
